QIANFAN-9               
1 60387U 24140J   26004.27405359  .00000182  00000+0  26346-3 0  9996
2 60387  88.9782 297.0079 0017306 127.3893 232.8837 13.50987281 70376
QIANFAN-10              
1 60388U 24140K   26004.27822554  .00000186  00000+0  26829-3 0  9997
2 60388  88.9792 296.3569 0016275 106.1576 254.1368 13.50987679 70503
QIANFAN-11              
1 60389U 24140L   26004.24131319  .00000176  00000+0  25365-3 0  9990
2 60389  88.9718 296.9311 0015361 126.5469 233.7099 13.50983731 70155
QIANFAN-12              
1 60390U 24140M   26004.26178957  .00000167  00000+0  23977-3 0  9990
2 60390  88.9761 296.9821 0013956 133.5799 226.6513 13.50984695 70289
QIANFAN-13              
1 60391U 24140N   26004.30704126  .00000175  00000+0  25145-3 0  9997
2 60391  88.9773 297.0801 0013707 135.8548 224.3699 13.50985225 70318
QIANFAN-14              
1 60392U 24140P   26004.25759122  .00000174  00000+0  25057-3 0  9999
2 60392  88.9752 296.9781 0017367 137.4458 222.8043 13.50984698 70314
QIANFAN-15              
1 60393U 24140Q   26004.26588748  .00000165  00000+0  23622-3 0  9991
2 60393  88.9775 296.9390 0013570 122.9818 237.2640 13.50983362 70306
QIANFAN-16              
1 60394U 24140R   26004.25357773  .00000181  00000+0  26177-3 0  9999
2 60394  88.9778 297.0611 0015214 140.4365 219.7900 13.50988706 70218
